{
  "norad_id": 39416,
  "name": "APRIZESAT 7",
  "history": [
    {
      "epoch": "2026-03-28T20:20:48.280128Z",
      "apogee_km": 619.7670049994558,
      "perigee_km": 567.715519643225,
      "latitude_deg": 4.546535865506242e-05,
      "longitude_deg": -89.19062037372566,
      "height_km": 608.2675586541958,
      "semi_major_axis_km": 6971.87826232134,
      "eccentricity": 0.00373296,
      "inclination_deg": 97.7628,
      "raan_deg": 42.2729,
      "arg_perigee_deg": 116.4943,
      "mean_anomaly_deg": 244.0112,
      "mean_motion_rev_day": 14.91344817
    }
  ]
}